COSMOS 2251 DEB         
1 36551U 93036BDM 17345.96328596  .00000506  00000-0  98926-4 0  9998
2 36551  73.8997 333.2864 0100200 203.9046 155.7453 14.62701236239759
